OSCAR 7 (AO-7)          
1 07530U 74089B   26186.25732965 -.00000046  00000+0 -20203-6 0  9999
2 07530 101.9900 199.6921 0012663  96.7175 325.8973 12.53698414362783
PHASE 3B (AO-10)        
1 14129U 83058B   26185.36417749  .00000171  00000+0  00000+0 0  9991
2 14129  25.9269 216.7306 6005072 120.3873 311.9427  2.05868912295847
UOSAT 2 (UO-11)         
1 14781U 84021B   26185.33680631  .00001623  00000+0  17048-3 0  9992
2 14781  97.8067 150.7210 0008909 121.3323 238.8769 14.90828993259683
LUSAT (LO-19)           
1 20442U 90005G   26186.04272726  .00000161  00000+0  74139-4 0  9994
2 20442  98.8845 208.3399 0012107 149.1725 211.0172 14.34128851904958
EYESAT A (AO-27)        
1 22825U 93061C   26186.18004384  .00000151  00000+0  74236-4 0  9991
2 22825  98.6873 253.5864 0009241  53.0213 307.1814 14.30947411709571
ITAMSAT (IO-26)         
1 22826U 93061D   26186.15408635  .00000155  00000+0  75456-4 0  9995
2 22826  98.6820 253.4798 0009522  37.5027 322.6818 14.31374787709882
RADIO ROSTO (RS15)      
1 23439U 94085A   26186.20855563 -.00000029  00000+0  37499-3 0  9990
2 23439  64.8175 274.0715 0156551   0.5463 359.5606 11.27583530297930
JAS-2 (FO-29)           
1 24278U 96046B   26185.83332930 -.00000022  00000+0  11395-4 0  9998
2 24278  98.5226  32.2868 0350728  50.7729 312.3996 13.53275006475552
TECHSAT 1B (GO-32)      
1 25397U 98043D   26186.18706267  .00000087  00000+0  57629-4 0  9997
2 25397  99.0075 179.4002 0001871 130.7519 229.3822 14.24432045453890
ISS (ZARYA)             
1 25544U 98067A   26186.12116982  .00009813  00000+0  18661-3 0  9998
2 25544  51.6302 211.3234 0006740 257.5366 102.4869 15.48901138574530
PCSAT (NO-44)           
1 26931U 01043C   26186.03969763  .00000158  00000+0  89765-4 0  9997
2 26931  67.0487 198.0968 0006005 265.8306  94.2109 14.31962418293005
SAUDISAT 1C (SO-50)     
1 27607U 02058C   26185.68749616  .00001404  00000+0  18212-3 0  9991
2 27607  64.5520  74.8394 0074817 259.1898 100.0781 14.83086074267058
CUTE-1 (CO-55)          
1 27844U 03031E   26186.02060450  .00000393  00000+0  18869-3 0  9991
2 27844  98.6737 194.3551 0010529 129.0136 231.1982 14.24347366194217
CUBESAT XI-IV (CO-57)   
1 27848U 03031J   26185.94773638  .00000336  00000+0  16664-3 0  9992
2 27848  98.6769 193.9817 0010102 146.4963 213.6856 14.23630898193908
MOZHAETS 4 (RS22)       
1 27939U 03042A   26186.35436638  .00000784  00000+0  12887-3 0  9997
2 27939  98.3472  11.2262 0010474 205.5121 274.3612 14.73499680218222
CUBESAT XI-V            
1 28895U 05043F   26185.38895324  .00001770  00000+0  28553-3 0  9998
2 28895  98.3005 341.3738 0014782 147.1004 213.1126 14.72680865104285
CUTE-1.7+APD II (CO-65) 
1 32785U 08021C   26186.21255739  .00008182  00000+0  51223-3 0  9997
2 32785  97.8292 168.0085 0007802 339.8898  20.2022 15.09637906987915
SEEDS II (CO-66)        
1 32791U 08021J   26185.95469630  .00032385  00000+0  10027-2 0  9999
2 32791  97.7525 184.7084 0001813 182.4533 177.6700 15.33399456990015
YUBILEINY (RS30)        
1 32953U 08025A   26186.28650435  .00000016  00000+0  41759-4 0  9999
2 32953  82.5054 344.1795 0018510 272.0565  87.8395 12.43180230821941
KKS-1 (KISEKI)          
1 33499U 09002H   26185.73009765  .00001975  00000+0  24873-3 0  9996
2 33499  98.1181 108.4502 0006658 226.6782 133.3877 14.83172947938790
SWISSCUBE               
1 35932U 09051B   26185.47808840  .00001528  00000+0  31098-3 0  9997
2 35932  98.4021  93.6669 0007217 148.5860 211.5774 14.62517748891680
BEESAT-1                
1 35933U 09051C   26185.70190184  .00001172  00000+0  24485-3 0  9996
2 35933  98.3947  93.4931 0005441 158.6227 201.5202 14.61750705891746
ITUPSAT1                
1 35935U 09051E   26185.70814032  .00001186  00000+0  25471-3 0  9994
2 35935  98.4031  92.6727 0007316 174.2685 185.8600 14.60469280891292
XIWANG-1 (HOPE-1)       
1 36122U 09072B   26186.25567351 -.00000285  00000+0 -63100-3 0  9998
2 36122 100.4037 139.8001 0007266 187.7051 172.3951 13.16438328795382
O/OREOS (USA 219)       
1 37224U 10062C   26186.00964580  .00003431  00000+0  32832-3 0  9993
2 37224  71.9706  39.9659 0013360  25.4011 334.7814 14.93824417119304
JUGNU                   
1 37839U 11058B   26186.22754291  .00000433  00000+0  86432-4 0  9996
2 37839  19.9587 198.8255 0018340 275.6943 166.0732 14.13781436761581
SRMSAT                  
1 37841U 11058D   26185.67445854  .00000423  00000+0  85792-4 0  9996
2 37841  19.9730 313.6268 0011851  36.6009 351.4175 14.11579530760299
STRAND-1                
1 39090U 13009E   26185.94874964  .00000402  00000+0  14932-3 0  9994
2 39090  98.3930   5.7465 0008799 169.9743 190.1621 14.37174843699617
ZACUBE-1 (TSHEPISOSAT)  
1 39417U 13066B   26185.93716864  .00005365  00000+0  41369-3 0  9990
2 39417  97.8032 148.3633 0043236 188.1764 171.8761 15.01294497683398
GOMX-1                  
1 39430U 13066Q   26186.29830758  .00002048  00000+0  31144-3 0  9999
2 39430  97.6469  25.6175 0129131  19.9587 340.6605 14.69521745672579
